1 48048U 21025G   22060.60757055 -.00000263  00000-0 -75436-3 0  9990
2 48048  87.8844 271.7730 0002084  77.3377 282.7985 13.13469725 47610
1 48048U 21025G   22061.14081397 -.00000198  00000-0 -57714-3 0  9995
2 48048  87.8845 271.6664 0002078  77.0834 283.0527 13.13469689 47686
1 48048U 21025G   22061.59788041 -.00000252  00000-0 -72430-3 0  9997
2 48048  87.8844 271.5751 0002076  76.8157 283.3204 13.13469425 47744
1 48048U 21025G   22062.58819062 -.00000063  00000-0 -20864-3 0  9999
2 48048  87.8843 271.3771 0002055  76.3200 283.8158 13.13469143 47878
1 48048U 21025G   22062.66436807 -.00000033  00000-0 -12429-3 0  9995
2 48048  87.8844 271.3620 0002063  76.4267 283.7092 13.13469435 47886
1 48048U 21025G   22062.81672365 -.00000028  00000-0 -11186-3 0  9996
2 48048  87.8844 271.3315 0002062  76.3889 283.7470 13.13469276 47901
1 48048U 21025G   22063.57850089  .00000116  00000-0  28348-3 0  9995
2 48048  87.8843 271.1792 0002034  75.6833 284.4522 13.13469347 48004
1 48048U 21025G   22063.65467901  .00000075  00000-0  16925-3 0  9993
2 48048  87.8843 271.1640 0002023  75.4821 284.6532 13.13468994 48010
1 48048U 21025G   22064.11174468  .00000208  00000-0  53332-3 0  9999
2 48048  87.8842 271.0725 0002016  75.3289 284.8064 13.13469702 48077
1 48048U 21025G   22064.11174468  .00000208  00000-0  53332-3 0  9999
2 48048  87.8842 271.0725 0002016  75.3289 284.8064 13.13469702 48077
1 48048U 21025G   22064.56881144  .00000223  00000-0  57665-3 0  9994
2 48048  87.8841 270.9811 0002011  75.3344 284.8008 13.13469203 48138
1 48048U 21025G   22064.79734460  .00000204  00000-0  52481-3 0  9997
2 48048  87.8841 270.9354 0002004  75.1701 284.9650 13.13469290 48160
1 48048U 21025G   22065.48294351  .00000288  00000-0  75472-3 0  9991
2 48048  87.8840 270.7983 0002009  75.0724 285.0627 13.13469514 48259
1 48048U 21025G   22065.55912109  .00000290  00000-0  75853-3 0  9993
2 48048  87.8840 270.7830 0002008  75.0308 285.1043 13.13469625 48264
1 48048U 21025G   22065.86383156  .00000349  00000-0  91951-3 0  9993
2 48048  87.8840 270.7221 0002014  75.1222 285.0130 13.13469599 48302
1 48048U 21025G   22066.47325224  .00000287  00000-0  75194-3 0  9995
2 48048  87.8840 270.6002 0001995  74.5496 285.5854 13.13470127 48386
1 48048U 21025G   22066.85414008  .00000334  00000-0  88081-3 0  9998
2 48048  87.8840 270.5240 0001987  74.3903 285.7446 13.13470008 48434
1 48048U 21025G   22066.85414008  .00000334  00000-0  88081-3 0  9998
2 48048  87.8840 270.5240 0001987  74.3903 285.7446 13.13470008 48434
1 48048U 21025G   22067.53973829  .00000234  00000-0  60644-3 0  9999
2 48048  87.8839 270.3869 0001968  73.9334 286.2011 13.13469803 48524
1 48048U 21025G   22067.84444537  .00000473  00000-0  12615-2 0  9991
2 48048  87.8840 270.3259 0001961  73.7133 286.4212 13.13472627 48564
1 48048U 21025G   22068.07295889  .00002376  00000-0  64688-2 0  9992
2 48048  87.8840 270.2802 0002049  71.0406 289.0945 13.13488172 48596
1 48048U 21025G   22068.53003881  .00000049  00000-0  98134-4 0  9992
2 48048  87.8838 270.1887 0001954  73.3974 286.7369 13.13471695 48657
1 48048U 21025G   22068.53003881  .00000049  00000-0  98134-4 0  9992
2 48048  87.8838 270.1887 0001954  73.3974 286.7369 13.13471695 48657
1 48048U 21025G   22068.91092566 -.00000059  00000-0 -19625-3 0  9992
2 48048  87.8839 270.1126 0001930  73.3614 286.7727 13.13471525 48705
1 48048U 21025G   22069.59652151 -.00000304  00000-0 -86826-3 0  9999
2 48048  87.8838 269.9755 0001922  72.8933 287.2407 13.13472122 48791
1 48048U 21025G   22069.59652151 -.00000304  00000-0 -86826-3 0  9999
2 48048  87.8838 269.9755 0001922  72.8933 287.2407 13.13472122 48791
1 48048U 21025G   22069.82505346 -.00000350  00000-0 -99370-3 0  9997
2 48048  87.8838 269.9298 0001919  72.5358 287.5981 13.13472254 48827
1 48048U 21025G   22070.51064521 -.00002751  00000-0 -75690-2 0  9995
2 48048  87.8837 269.7926 0001906  70.7301 289.4035 13.13482333 48916
1 48048U 21025G   22070.51064521 -.00002751  00000-0 -75690-2 0  9995
2 48048  87.8837 269.7926 0001906  70.7301 289.4035 13.13482333 48916
1 48048U 21025G   22070.81535846 -.00000181  00000-0 -52966-3 0  9998
2 48048  87.8838 269.7317 0001907  72.8089 287.3249 13.13470057 48956
1 48048U 21025G   22070.81535846 -.00000181  00000-0 -52966-3 0  9998
2 48048  87.8838 269.7317 0001907  72.8089 287.3249 13.13470057 48956
1 48048U 21025G   22071.57713347 -.00000243  00000-0 -69939-3 0  9993
2 48048  87.8838 269.5792 0001908  73.0132 287.1206 13.13470498 49056
1 48048U 21025G   22071.80566635 -.00000277  00000-0 -79226-3 0  9992
2 48048  87.8838 269.5335 0001902  72.8913 287.2424 13.13470230 49087
1 48048U 21025G   22072.11037703 -.00000331  00000-0 -94222-3 0  9990
2 48048  87.8837 269.4724 0001887  72.7191 287.4145 13.13469890 49123
1 48048U 21025G   22072.56744213 -.00000238  00000-0 -68766-3 0  9990
2 48048  87.8837 269.3809 0001878  72.5708 287.5626 13.13470254 49185
1 48048U 21025G   22072.79597508 -.00000246  00000-0 -70771-3 0  9996
2 48048  87.8837 269.3352 0001870  72.4765 287.6568 13.13470100 49212
1 48048U 21025G   22073.48157421 -.00000188  00000-0 -54961-3 0  9997
2 48048  87.8838 269.1981 0001845  72.3225 287.8105 13.13469690 49302
1 48048U 21025G   22073.55775187 -.00000197  00000-0 -57318-3 0  9999
2 48048  87.8838 269.1828 0001842  72.2014 287.9315 13.13469760 49317
1 48048U 21025G   22073.78628462 -.00000138  00000-0 -41394-3 0  9999
2 48048  87.8838 269.1371 0001839  72.2329 287.9001 13.13469951 49342
1 48048U 21025G   22074.01481775 -.00000105  00000-0 -32245-3 0  9999
2 48048  87.8838 269.0914 0001828  71.9076 288.2252 13.13469859 49379
1 48048U 21025G   22074.77659401  .00000068  00000-0  15154-3 0  9991
2 48048  87.8839 268.9392 0001815  71.5548 288.5778 13.13470539 49478
1 48048U 21025G   22075.61454937  .00000135  00000-0  33378-3 0  9995
2 48048  87.8839 268.7715 0001786  71.5509 288.5814 13.13469969 49587
1 48048U 21025G   22075.76690507  .00000117  00000-0  28444-3 0  9994
2 48048  87.8839 268.7410 0001782  71.6709 288.4613 13.13469656 49600
1 48048U 21025G   22076.07161585  .00000174  00000-0  44202-3 0  9991
2 48048  87.8839 268.6801 0001765  71.1123 289.0198 13.13469587 49641
1 48048U 21025G   22076.60485995  .00000259  00000-0  67532-3 0  9999
2 48048  87.8838 268.5734 0001747  71.2137 288.9181 13.13469052 49715
1 48048U 21025G   22076.90956965  .00000246  00000-0  63926-3 0  9991
2 48048  87.8838 268.5124 0001732  71.1929 288.9388 13.13470552 49750
1 48048U 21025G   22077.51899137  .00000322  00000-0  84647-3 0  9994
2 48048  87.8837 268.3906 0001720  70.4382 289.6933 13.13469483 49831
1 48048U 21025G   22077.51899137  .00000322  00000-0  84647-3 0  9994
2 48048  87.8837 268.3906 0001720  70.4382 289.6933 13.13469483 49831
1 48048U 21025G   22077.89987919  .00000279  00000-0  72963-3 0  9990
2 48048  87.8837 268.3144 0001715  70.7672 289.3642 13.13470046 49880
1 48048U 21025G   22078.58547660  .00000332  00000-0  87416-3 0  9991
2 48048  87.8836 268.1772 0001706  70.4567 289.6747 13.13470511 49970
1 48048U 21025G   22078.89018676  .00000308  00000-0  80945-3 0  9998
2 48048  87.8837 268.1162 0001690  71.0756 289.0556 13.13470424 50015
1 48048U 21025G   22079.49960653  .00000234  00000-0  60714-3 0  9996
2 48048  87.8836 267.9942 0001680  70.8989 289.2322 13.13470731 50093
1 48048U 21025G   22079.80431594  .00000252  00000-0  65390-3 0  9993
2 48048  87.8835 267.9332 0001664  71.0916 289.0393 13.13471271 50131
1 48048U 21025G   22079.88049298  .00000248  00000-0  64529-3 0  9995
2 48048  87.8836 267.9180 0001658  71.1615 288.9694 13.13471710 50144
1 48048U 21025G   22080.56609070  .00000090  00000-0  21127-3 0  9994
2 48048  87.8837 267.7808 0001653  71.0327 289.0981 13.13470928 50235
1 48048U 21025G   22080.79462273  .00000084  00000-0  19468-3 0  9999
2 48048  87.8837 267.7351 0001644  71.0861 289.0446 13.13471183 50264
1 48048U 21025G   22081.02315514 -.00000026  00000-0 -10513-3 0  9991
2 48048  87.8837 267.6894 0001630  71.2108 288.9198 13.13471187 50295
1 48048U 21025G   22081.48021991 -.00000078  00000-0 -24734-3 0  9991
2 48048  87.8836 267.5979 0001625  71.3232 288.8074 13.13470881 50359
1 48048U 21025G   22081.78492954 -.00000100  00000-0 -30951-3 0  9999
2 48048  87.8836 267.5369 0001634  71.8098 288.3209 13.13470982 50398
1 48048U 21025G   22082.24199378 -.00000150  00000-0 -44503-3 0  9998
2 48048  87.8838 267.4455 0001612  71.7849 288.3455 13.13471290 50457
1 48048U 21025G   22082.47052664 -.00000233  00000-0 -67430-3 0  9995
2 48048  87.8837 267.3997 0001621  71.9815 288.1491 13.13470899 50486
1 48048U 21025G   22082.77523599 -.00000201  00000-0 -58673-3 0  9992
2 48048  87.8838 267.3388 0001614  72.0209 288.1096 13.13471301 50527
1 48048U 21025G   22083.53701144 -.00000267  00000-0 -76554-3 0  9991
2 48048  87.8840 267.1865 0001589  72.4726 287.6576 13.13470520 50627
1 48048U 21025G   22083.91789871 -.00000254  00000-0 -73114-3 0  9991
2 48048  87.8841 267.1102 0001568  72.3811 287.7489 13.13470886 50677
1 48048U 21025G   22083.91789871 -.00000254  00000-0 -73114-3 0  9991
2 48048  87.8841 267.1102 0001568  72.3811 287.7489 13.13470886 50677
1 48048U 21025G   22084.52731946 -.00000229  00000-0 -66147-3 0  9999
2 48048  87.8840 266.9884 0001546  72.0458 288.0840 13.13470354 50754
1 48048U 21025G   22084.75585169 -.00000151  00000-0 -44917-3 0  9993
2 48048  87.8840 266.9427 0001543  72.0776 288.0521 13.13470826 50780
1 48048U 21025G   22085.06056276 -.00000255  00000-0 -73324-3 0  9999
2 48048  87.8840 266.8818 0001527  71.9524 288.1771 13.13470309 50823
1 48048U 21025G   22085.51762875 -.00000179  00000-0 -52423-3 0  9990
2 48048  87.8841 266.7903 0001523  72.1278 288.0017 13.13469883 50886
1 48048U 21025G   22085.89851668 -.00000219  00000-0 -63437-3 0  9992
2 48048  87.8841 266.7142 0001504  72.1556 287.9737 13.13470520 50932
1 48048U 21025G   22086.20322652  .00000039  00000-0  70763-4 0  9993
2 48048  87.8841 266.6533 0001500  72.0116 288.1177 13.13470810 50979
